[{"OBJECT_NAME":"SUPERVIEW NEO-3 01","OBJECT_ID":"2024-072A","EPOCH":"2026-03-09T22:59:09.446208","MEAN_MOTION":15.23128449,"ECCENTRICITY":0.00029396,"INCLINATION":97.4184,"RA_OF_ASC_NODE":150.1524,"ARG_OF_PERICENTER":104.5976,"MEAN_ANOMALY":255.5587,"EPHEMERIS_TYPE":0,"CLASSIFICATION_TYPE":"U","NORAD_CAT_ID":59510,"ELEMENT_SET_NO":999,"REV_AT_EPOCH":10559,"BSTAR":0.00057697543,"MEAN_MOTION_DOT":0.00013563,"MEAN_MOTION_DDOT":0},{"OBJECT_NAME":"SITRO-AIS-60","OBJECT_ID":"2025-313N","EPOCH":"2026-03-09T21:17:25.286208","MEAN_MOTION":15.21085729,"ECCENTRICITY":0.00151729,"INCLINATION":97.4006,"RA_OF_ASC_NODE":145.1066,"ARG_OF_PERICENTER":358.9487,"MEAN_ANOMALY":1.1715,"EPHEMERIS_TYPE":0,"CLASSIFICATION_TYPE":"U","NORAD_CAT_ID":67260,"ELEMENT_SET_NO":999,"REV_AT_EPOCH":1084,"BSTAR":0.00042372685,"MEAN_MOTION_DOT":9.383e-5,"MEAN_MOTION_DDOT":0}]
